{
  "type": "FeatureCollection",
  "features": [
    {
      "type": "Feature",
      "properties": {
        "norad_id": 35915,
        "name": "IRIDIUM 33 DEB",
        "group": "iridium-33-debris",
        "lat": 34.91307425088223,
        "lon": 158.49763345081598,
        "alt_km": 617.3796660697726,
        "timestamp": "2025-12-16T21:38:57.560396+00:00",
        "meta_object_name": "IRIDIUM 33 DEB",
        "meta_object_id": "1997-051TY",
        "meta_epoch": "2025-12-15T17:25:35.441760",
        "meta_mean_motion": 14.80816607,
        "meta_eccentricity": 0.00112544,
        "meta_inclination": 86.3436,
        "meta_ra_of_asc_node": 341.593,
        "meta_arg_of_pericenter": 174.6839,
        "meta_mean_anomaly": 185.4504,
        "meta_ephemeris_type": 0,
        "meta_classification_type": "U",
        "meta_norad_cat_id": 35915,
        "meta_element_set_no": 999,
        "meta_rev_at_epoch": 8130,
        "meta_bstar": 0.0011378054,
        "meta_mean_motion_dot": 8.81e-05,
        "meta_mean_motion_ddot": 0,
        "tle_line1": "1 35915U 97051TY  25349.72610465  .00008810  00000+0  11378-2 0  9997",
        "tle_line2": "2 35915  86.3436 341.5930 0011254 174.6839 185.4504 14.80816607 81301"
      },
      "geometry": {
        "type": "Point",
        "coordinates": [
          158.49763345081598,
          34.91307425088223
        ]
      }
    },
    {
      "type": "Feature",
      "properties": {
        "norad_id": 35918,
        "name": "IRIDIUM 33 DEB",
        "group": "iridium-33-debris",
        "lat": -38.28874959017279,
        "lon": -103.1229555346942,
        "alt_km": 718.7595713837627,
        "timestamp": "2025-12-16T21:38:57.560406+00:00",
        "meta_object_name": "IRIDIUM 33 DEB",
        "meta_object_id": "1997-051UB",
        "meta_epoch": "2025-12-15T23:56:06.235296",
        "meta_mean_motion": 14.51274744,
        "meta_eccentricity": 0.00279495,
        "meta_inclination": 86.4012,
        "meta_ra_of_asc_node": 74.4175,
        "meta_arg_of_pericenter": 158.8966,
        "meta_mean_anomaly": 15.1207,
        "meta_ephemeris_type": 0,
        "meta_classification_type": "U",
        "meta_norad_cat_id": 35918,
        "meta_element_set_no": 999,
        "meta_rev_at_epoch": 85254,
        "meta_bstar": 0.00076482664,
        "meta_mean_motion_dot": 3.077e-05,
        "meta_mean_motion_ddot": 0,
        "tle_line1": "1 35918U 97051UB  25349.99729439  .00003077  00000+0  76483-3 0  9990",
        "tle_line2": "2 35918  86.4012  74.4175 0027949 158.8966  15.1207 14.51274744852540"
      },
      "geometry": {
        "type": "Point",
        "coordinates": [
          -103.1229555346942,
          -38.28874959017279
        ]
      }
    },
    {
      "type": "Feature",
      "properties": {
        "norad_id": 35929,
        "name": "IRIDIUM 33 DEB",
        "group": "iridium-33-debris",
        "lat": 16.331936053703366,
        "lon": -48.26664126362016,
        "alt_km": 547.2343823463689,
        "timestamp": "2025-12-16T21:38:57.560416+00:00",
        "meta_object_name": "IRIDIUM 33 DEB",
        "meta_object_id": "1997-051UN",
        "meta_epoch": "2025-12-15T15:12:36.400032",
        "meta_mean_motion": 15.02615499,
        "meta_eccentricity": 0.00177406,
        "meta_inclination": 86.3319,
        "meta_ra_of_asc_node": 311.2578,
        "meta_arg_of_pericenter": 28.1531,
        "meta_mean_anomaly": 332.0658,
        "meta_ephemeris_type": 0,
        "meta_classification_type": "U",
        "meta_norad_cat_id": 35929,
        "meta_element_set_no": 999,
        "meta_rev_at_epoch": 87823,
        "meta_bstar": 0.0017233436,
        "meta_mean_motion_dot": 0.00023096,
        "meta_mean_motion_ddot": 0,
        "tle_line1": "1 35929U 97051UN  25349.63375463  .00023096  00000+0  17233-2 0  9997",
        "tle_line2": "2 35929  86.3319 311.2578 0017740  28.1531 332.0658 15.02615499878233"
      },
      "geometry": {
        "type": "Point",
        "coordinates": [
          -48.26664126362016,
          16.331936053703366
        ]
      }
    },
    {
      "type": "Feature",
      "properties": {
        "norad_id": 36011,
        "name": "IRIDIUM 33 DEB",
        "group": "iridium-33-debris",
        "lat": 60.27049196477223,
        "lon": -152.79620553049105,
        "alt_km": 746.6745818314848,
        "timestamp": "2025-12-16T21:38:57.560426+00:00",
        "meta_object_name": "IRIDIUM 33 DEB",
        "meta_object_id": "1997-051US",
        "meta_epoch": "2025-12-11T21:42:29.079072",
        "meta_mean_motion": 14.41326157,
        "meta_eccentricity": 0.0017563,
        "meta_inclination": 86.3411,
        "meta_ra_of_asc_node": 35.7829,
        "meta_arg_of_pericenter": 218.6873,
        "meta_mean_anomaly": 266.0791,
        "meta_ephemeris_type": 0,
        "meta_classification_type": "U",
        "meta_norad_cat_id": 36011,
        "meta_element_set_no": 999,
        "meta_rev_at_epoch": 64528,
        "meta_bstar": 0.00076231,
        "meta_mean_motion_dot": 2.489e-05,
        "meta_mean_motion_ddot": 0,
        "tle_line1": "1 36011U 97051US  25345.90450323  .00002489  00000+0  76231-3 0  9992",
        "tle_line2": "2 36011  86.3411  35.7829 0017563 218.6873 266.0791 14.41326157645287"
      },
      "geometry": {
        "type": "Point",
        "coordinates": [
          -152.79620553049105,
          60.27049196477223
        ]
      }
    },
    {
      "type": "Feature",
      "properties": {
        "norad_id": 36012,
        "name": "IRIDIUM 33 DEB",
        "group": "iridium-33-debris",
        "lat": 71.21586267997266,
        "lon": -43.59741669317569,
        "alt_km": 973.8229163804372,
        "timestamp": "2025-12-16T21:38:57.560436+00:00",
        "meta_object_name": "IRIDIUM 33 DEB",
        "meta_object_id": "1997-051UT",
        "meta_epoch": "2025-12-15T14:50:29.812704",
        "meta_mean_motion": 14.19105959,
        "meta_eccentricity": 0.02114565,
        "meta_inclination": 86.4397,
        "meta_ra_of_asc_node": 306.3728,
        "meta_arg_of_pericenter": 253.9261,
        "meta_mean_anomaly": 103.8553,
        "meta_ephemeris_type": 0,
        "meta_classification_type": "U",
        "meta_norad_cat_id": 36012,
        "meta_element_set_no": 999,
        "meta_rev_at_epoch": 65525,
        "meta_bstar": 0.0034696464,
        "meta_mean_motion_dot": 9.086e-05,
        "meta_mean_motion_ddot": 0,
        "tle_line1": "1 36012U 97051UT  25349.61840061  .00009086  00000+0  34696-2 0  9995",
        "tle_line2": "2 36012  86.4397 306.3728 0211456 253.9261 103.8553 14.19105959655259"
      },
      "geometry": {
        "type": "Point",
        "coordinates": [
          -43.59741669317569,
          71.21586267997266
        ]
      }
    },
    {
      "type": "Feature",
      "properties": {
        "norad_id": 36028,
        "name": "IRIDIUM 33 DEB",
        "group": "iridium-33-debris",
        "lat": -36.87712596879248,
        "lon": 127.50680053715823,
        "alt_km": 601.8708904622545,
        "timestamp": "2025-12-16T21:38:57.560446+00:00",
        "meta_object_name": "IRIDIUM 33 DEB",
        "meta_object_id": "1997-051VK",
        "meta_epoch": "2025-12-13T04:21:30.824928",
        "meta_mean_motion": 14.95340527,
        "meta_eccentricity": 0.00215137,
        "meta_inclination": 86.3216,
        "meta_ra_of_asc_node": 306.4905,
        "meta_arg_of_pericenter": 52.2095,
        "meta_mean_anomaly": 308.1078,
        "meta_ephemeris_type": 0,
        "meta_classification_type": "U",
        "meta_norad_cat_id": 36028,
        "meta_element_set_no": 999,
        "meta_rev_at_epoch": 87131,
        "meta_bstar": 0.0034254157,
        "meta_mean_motion_dot": 0.00038122,
        "meta_mean_motion_ddot": 0,
        "tle_line1": "1 36028U 97051VK  25347.18160677  .00038122  00000+0  34254-2 0  9993",
        "tle_line2": "2 36028  86.3216 306.4905 0021513  52.2095 308.1078 14.95340527871316"
      },
      "geometry": {
        "type": "Point",
        "coordinates": [
          127.50680053715823,
          -36.87712596879248
        ]
      }
    },
    {
      "type": "Feature",
      "properties": {
        "norad_id": 36080,
        "name": "IRIDIUM 33 DEB",
        "group": "iridium-33-debris",
        "lat": 63.84450878228191,
        "lon": 13.704333285710472,
        "alt_km": 727.9867513727431,
        "timestamp": "2025-12-16T21:38:57.560456+00:00",
        "meta_object_name": "IRIDIUM 33 DEB",
        "meta_object_id": "1997-051VM",
        "meta_epoch": "2025-12-12T07:47:12.921504",
        "meta_mean_motion": 14.46603626,
        "meta_eccentricity": 0.0018143,
        "meta_inclination": 86.3202,
        "meta_ra_of_asc_node": 8.1679,
        "meta_arg_of_pericenter": 158.128,
        "meta_mean_anomaly": 202.0701,
        "meta_ephemeris_type": 0,
        "meta_classification_type": "U",
        "meta_norad_cat_id": 36080,
        "meta_element_set_no": 999,
        "meta_rev_at_epoch": 47408,
        "meta_bstar": 0.00097514146,
        "meta_mean_motion_dot": 3.542e-05,
        "meta_mean_motion_ddot": 0,
        "tle_line1": "1 36080U 97051VM  25346.32445511  .00003542  00000+0  97514-3 0  9996",
        "tle_line2": "2 36080  86.3202   8.1679 0018143 158.1280 202.0701 14.46603626474086"
      },
      "geometry": {
        "type": "Point",
        "coordinates": [
          13.704333285710472,
          63.84450878228191
        ]
      }
    }
  ]
}